[{"OBJECT_NAME":"STELLA","OBJECT_ID":"1993-061B","EPOCH":"2026-03-09T22:50:14.153280","MEAN_MOTION":14.2746756,"ECCENTRICITY":0.00067535,"INCLINATION":98.784,"RA_OF_ASC_NODE":132.7988,"ARG_OF_PERICENTER":156.9855,"MEAN_ANOMALY":327.7404,"EPHEMERIS_TYPE":0,"CLASSIFICATION_TYPE":"U","NORAD_CAT_ID":22824,"ELEMENT_SET_NO":999,"REV_AT_EPOCH":69061,"BSTAR":7.617075e-6,"MEAN_MOTION_DOT":-2.6e-7,"MEAN_MOTION_DDOT":0},{"OBJECT_NAME":"FENGYUN 1C DEB","OBJECT_ID":"1999-025CRY","EPOCH":"2026-03-08T07:18:26.300448","MEAN_MOTION":14.37867994,"ECCENTRICITY":0.00832431,"INCLINATION":98.9119,"RA_OF_ASC_NODE":241.9108,"ARG_OF_PERICENTER":77.8178,"MEAN_ANOMALY":283.2316,"EPHEMERIS_TYPE":0,"CLASSIFICATION_TYPE":"U","NORAD_CAT_ID":32130,"ELEMENT_SET_NO":999,"REV_AT_EPOCH":97464,"BSTAR":0.00056585819,"MEAN_MOTION_DOT":1.729e-5,"MEAN_MOTION_DDOT":0}]
